MALLIGYONG-1            
1 58400U 23179A   24047.47820777  .00009690  00000+0  42074-3 0  9991
2 58400  97.4210 296.1270 0014904 339.7816  20.2828 15.22423485 13219
